OBJECT_NAME,OBJECT_ID,EPOCH,MEAN_MOTION,ECCENTRICITY,INCLINATION,RA_OF_ASC_NODE,ARG_OF_PERICENTER,MEAN_ANOMALY,EPHEMERIS_TYPE,CLASSIFICATION_TYPE,NORAD_CAT_ID,ELEMENT_SET_NO,REV_AT_EPOCH,BSTAR,MEAN_MOTION_DOT,MEAN_MOTION_DDOT
QB50P1,2014-033R,2026-06-10T11:50:24.309024,15.18159274,.000723,98.0971,172.1703,241.8830,118.1672,0,U,40025,999,65201,.36199E-3,.7323E-4,0
DTUSAT-2,2014-033W,2026-06-10T12:01:19.334208,15.14932322,.0006186,98.0861,158.8038,253.0774,106.9779,0,U,40030,999,65167,.30625E-3,.5635E-4,0
QB50P2,2014-033Y,2026-06-10T11:53:58.358112,15.15072964,.0007303,98.0751,157.9598,184.9608,175.1552,0,U,40032,999,65165,.31531E-3,.5829E-4,0
PERSEUS-M1,2014-033AF,2026-06-10T01:52:40.520064,14.95611900,.00107249,97.9645,105.0938,328.4585,31.5991,0,U,40039,999,64957,.13256399E-3,.1412E-4,0
POLYITAN-1,2014-033AJ,2026-06-10T00:04:54.323328,15.33005372,.00081138,98.0952,186.5861,161.9908,198.1621,0,U,40042,999,65249,.56929436E-3,.18102E-3,0
TIGRISAT,2014-033AK,2026-06-10T04:13:50.355264,14.85135319,.0050709,97.7822,311.3494,97.5926,263.1053,0,U,40043,999,64458,.24109E-3,.2056E-4,0
CANX-4,2014-034C,2026-06-10T09:31:25.119264,14.81252055,.0013614,98.3131,36.4603,37.8743,322.3424,0,U,40055,999,64352,.1091E-3,.794E-5,0
CANX-5,2014-034D,2026-06-10T04:37:27.513120,14.81268948,.0013636,98.3134,36.2920,38.5954,321.6230,0,U,40056,999,63430,.11271E-3,.822E-5,0
GONETS-M 10,2014-036C,2026-06-10T11:16:47.061696,12.42945798,.0022408,82.5110,311.8478,154.7378,205.4802,0,U,40063,999,54141,.65686E-3,.101E-5,0
METEOR-M 2,2014-037A,2026-06-10T12:41:40.056576,14.21459926,.0006975,98.5110,137.5032,60.2411,299.9460,0,U,40069,999,61837,.62394E-4,.94E-6,0
DX1,2014-037C,2026-06-10T12:16:37.210656,14.89965591,.000592,98.3860,122.8080,302.3492,57.7150,0,U,40071,999,64511,.18896E-3,.1758E-4,0
UKUBE-1,2014-037F,2026-06-10T11:46:50.884608,15.13445461,.0002176,98.4238,164.0595,142.7393,217.3986,0,U,40074,999,64754,.45886E-3,.8128E-4,0
GAOFEN-2,2014-049A,2026-06-10T11:41:28.501152,14.80893497,.000588,98.0111,225.7009,253.3367,106.7200,0,U,40118,999,63824,.1224E-3,.892E-5,0
BRITE-PL2 (HEWELIUSZ),2014-049B,2026-06-10T06:38:13.164000,14.94572442,.0015152,97.9090,273.2238,128.9615,231.2957,0,U,40119,999,64041,.1488E-3,.1553E-4,0
CBERS 4,2014-079A,2026-06-10T11:38:43.451232,14.35508112,.0002,98.3535,218.5271,70.4231,289.7170,0,U,40336,999,60299,.11659E-3,.293E-5,0
SMAP,2015-003A,2026-06-10T12:22:40.920096,14.63360726,.0001281,98.1276,168.7048,93.5768,266.5580,0,U,40376,999,60664,.82192E-4,.378E-5,0
GONETS-M 11,2015-020A,2026-06-10T11:42:48.617280,12.42877060,.0016907,82.4876,35.1661,19.8714,340.3021,0,U,40552,999,50790,.25273E-3,.45E-6,0
GONETS-M 12,2015-020B,2026-06-10T11:04:44.601312,12.42891068,.001565,82.4910,36.3046,5.4372,354.6875,0,U,40553,999,50789,.17117E-3,.34E-6,0
GONETS-M 13,2015-020C,2026-06-10T12:22:18.661728,12.42870141,.0013978,82.4871,34.8881,350.9509,9.1317,0,U,40554,999,50787,.88174E-4,.22E-6,0
DMC3-FM1,2015-032A,2026-06-10T12:54:33.668352,14.85732608,.0007213,97.6476,26.9736,76.7613,283.4407,0,U,40715,999,58892,.80821E-4,.65E-5,0
DMC3-FM2,2015-032B,2026-06-10T13:26:21.261120,14.85734404,.0007643,97.6528,28.5636,80.9852,279.2228,0,U,40716,999,58892,-.42013E-5,-.88E-6,0
DMC3-FM3,2015-032C,2026-06-10T12:22:53.784192,14.85724961,.0006832,97.6579,30.2699,81.7968,278.4022,0,U,40717,999,58892,.58582E-4,.457E-5,0
CARBONITE 1 (CBNT-1),2015-032D,2026-06-10T12:07:42.807648,14.83564676,.0013609,97.6510,339.8521,321.7067,38.3180,0,U,40718,999,58835,.12434E-3,.975E-5,0
LILACSAT-2,2015-049K,2026-06-10T13:32:09.010752,15.51225431,.0005285,97.4660,198.1544,277.2161,82.8490,0,U,40908,999,59472,.2709E-3,.15772E-3,0
COSMOS 2507 (RODNIK-S 13),2015-050A,2026-06-10T13:13:42.931776,12.42926735,.0010491,82.4918,83.8009,10.7881,349.3421,0,U,40920,999,48603,.14233E-3,.3E-6,0
COSMOS 2508 (RODNIK-S 14),2015-050B,2026-06-10T12:08:51.195840,12.42914184,.0015354,82.4871,82.3366,40.6215,319.6007,0,U,40921,999,48601,.23657E-3,.43E-6,0
COSMOS 2509 (RODNIK-S 15),2015-050C,2026-06-10T12:37:54.139584,12.42883704,.001583,82.4879,82.4257,56.4658,303.7931,0,U,40922,999,48605,.43066E-3,.7E-6,0
