QB50P1                  
1 40025U 14033R   26161.49333691  .00007323  00000+0  36199-3 0  9991
2 40025  98.0971 172.1703 0007230 241.8830 118.1672 15.18159274652019
DTUSAT-2                
1 40030U 14033W   26161.50091822  .00005635  00000+0  30625-3 0  9998
2 40030  98.0861 158.8038 0006186 253.0774 106.9779 15.14932322651679
QB50P2                  
1 40032U 14033Y   26161.49581433  .00005829  00000+0  31531-3 0  9992
2 40032  98.0751 157.9598 0007303 184.9608 175.1552 15.15072964651653
PERSEUS-M1              
1 40039U 14033AF  26161.07824676  .00001412  00000+0  13256-3 0  9990
2 40039  97.9645 105.0938 0010724 328.4585  31.5991 14.95611900649578
POLYITAN-1              
1 40042U 14033AJ  26161.00340652  .00018102  00000+0  56929-3 0  9992
2 40042  98.0952 186.5861 0008113 161.9908 198.1621 15.33005372652490
TIGRISAT                
1 40043U 14033AK  26161.17627726  .00002056  00000+0  24109-3 0  9997
2 40043  97.7822 311.3494 0050709  97.5926 263.1053 14.85135319644589
CANX-4                  
1 40055U 14034C   26161.39681851  .00000794  00000+0  10910-3 0  9996
2 40055  98.3131  36.4603 0013614  37.8743 322.3424 14.81252055643523
CANX-5                  
1 40056U 14034D   26161.19267955  .00000822  00000+0  11271-3 0  9993
2 40056  98.3134  36.2920 0013636  38.5954 321.6230 14.81268948634304
GONETS-M 10             
1 40063U 14036C   26161.46998914  .00000101  00000+0  65686-3 0  9998
2 40063  82.5110 311.8478 0022408 154.7378 205.4802 12.42945798541412
METEOR-M 2              
1 40069U 14037A   26161.52893584  .00000094  00000+0  62394-4 0  9994
2 40069  98.5110 137.5032 0006975  60.2411 299.9460 14.21459926618374
DX1                     
1 40071U 14037C   26161.51154179  .00001758  00000+0  18896-3 0  9991
2 40071  98.3860 122.8080 0005920 302.3492  57.7150 14.89965591645117
UKUBE-1                 
1 40074U 14037F   26161.49086672  .00008128  00000+0  45886-3 0  9990
2 40074  98.4238 164.0595 0002176 142.7393 217.3986 15.13445461647542
GAOFEN-2                
1 40118U 14049A   26161.48713543  .00000892  00000+0  12240-3 0  9993
2 40118  98.0111 225.7009 0005880 253.3367 106.7200 14.80893497638243
BRITE-PL2 (HEWELIUSZ)   
1 40119U 14049B   26161.27654125  .00001553  00000+0  14880-3 0  9998
2 40119  97.9090 273.2238 0015152 128.9615 231.2957 14.94572442640410
CBERS 4                 
1 40336U 14079A   26161.48522513  .00000293  00000+0  11659-3 0  9991
2 40336  98.3535 218.5271 0002000  70.4231 289.7170 14.35508112602996
SMAP                    
1 40376U 15003A   26161.51575139  .00000378  00000+0  82192-4 0  9994
2 40376  98.1276 168.7048 0001281  93.5768 266.5580 14.63360726606641
GONETS-M 11             
1 40552U 15020A   26161.48806270  .00000045  00000+0  25273-3 0  9995
2 40552  82.4876  35.1661 0016907  19.8714 340.3021 12.42877060507909
GONETS-M 12             
1 40553U 15020B   26161.46162733  .00000034  00000+0  17117-3 0  9999
2 40553  82.4910  36.3046 0015650   5.4372 354.6875 12.42891068507891
GONETS-M 13             
1 40554U 15020C   26161.51549377  .00000022  00000+0  88174-4 0  9998
2 40554  82.4871  34.8881 0013978 350.9509   9.1317 12.42870141507879
DMC3-FM1                
1 40715U 15032A   26161.53788968  .00000650  00000+0  80821-4 0  9991
2 40715  97.6476  26.9736 0007213  76.7613 283.4407 14.85732608588928
DMC3-FM2                
1 40716U 15032B   26161.55996830 -.00000088  00000+0 -42013-5 0  9992
2 40716  97.6528  28.5636 0007643  80.9852 279.2228 14.85734404588923
DMC3-FM3                
1 40717U 15032C   26161.51590028  .00000457  00000+0  58582-4 0  9993
2 40717  97.6579  30.2699 0006832  81.7968 278.4022 14.85724961588925
CARBONITE 1 (CBNT-1)    
1 40718U 15032D   26161.50535657  .00000975  00000+0  12434-3 0  9990
2 40718  97.6510 339.8521 0013609 321.7067  38.3180 14.83564676588358
LILACSAT-2              
1 40908U 15049K   26161.56399318  .00015772  00000+0  27090-3 0  9992
2 40908  97.4660 198.1544 0005285 277.2161  82.8490 15.51225431594720
COSMOS 2507 (RODNIK-S *)
1 40920U 15050A   26161.55119134  .00000030  00000+0  14233-3 0  9999
2 40920  82.4918  83.8009 0010491  10.7881 349.3421 12.42926735486035
COSMOS 2508 (RODNIK-S *)
1 40921U 15050B   26161.50614810  .00000043  00000+0  23657-3 0  9990
2 40921  82.4871  82.3366 0015354  40.6215 319.6007 12.42914184486013
COSMOS 2509 (RODNIK-S *)
1 40922U 15050C   26161.52632106  .00000070  00000+0  43066-3 0  9997
2 40922  82.4879  82.4257 0015830  56.4658 303.7931 12.42883704486054
